[{"OBJECT_NAME":"FALCONSAT-6","OBJECT_ID":"2018-099BK","EPOCH":"2026-03-09T17:24:38.352096","MEAN_MOTION":15.26532865,"ECCENTRICITY":0.00143698,"INCLINATION":97.3865,"RA_OF_ASC_NODE":145.8165,"ARG_OF_PERICENTER":297.0944,"MEAN_ANOMALY":181.0714,"EPHEMERIS_TYPE":0,"CLASSIFICATION_TYPE":"U","NORAD_CAT_ID":43815,"ELEMENT_SET_NO":999,"REV_AT_EPOCH":39855,"BSTAR":0.00019476898,"MEAN_MOTION_DOT":5.029e-5,"MEAN_MOTION_DDOT":0},{"OBJECT_NAME":"STARLINK-35471","OBJECT_ID":"2025-223L","EPOCH":"2026-03-09T22:03:55.960416","MEAN_MOTION":15.30215247,"ECCENTRICITY":0.00011472,"INCLINATION":53.1576,"RA_OF_ASC_NODE":292.9085,"ARG_OF_PERICENTER":57.7035,"MEAN_ANOMALY":302.4077,"EPHEMERIS_TYPE":0,"CLASSIFICATION_TYPE":"U","NORAD_CAT_ID":65864,"ELEMENT_SET_NO":999,"REV_AT_EPOCH":2424,"BSTAR":0.0011246856,"MEAN_MOTION_DOT":0.00033115,"MEAN_MOTION_DDOT":0}]
